#dP2020  3  2  0  0  0.00000000      96 __u+U ITR00 FIT  IAC
## 2095  86400.00000000   900.00000000 58910 0.0000000000000
+  106   C06C07C08C09C10C11C12C13C14C16C19C20C21C22C23C24C25
+        C26C27C28C29C30C32C33C34C35C36C37E01E02E03E04E05E07
+        E08E09E11E12E13E14E15E18E19E21E24E25E26E27E30E31E33
+        E36G01G02G03G04G05G06G07G08G09G10G11G12G13G14G15G16
+        G17G18G19G20G21G22G23G24G25G26G27G28G29G30G31G32R01
+        R02R03R04R05R07R08R09R11R12R13R14R15R16R17R18R19R20
+        R21R22R23R26  0  0  0  0  0  0  0  0  0  0  0  0  0
++         8  9  9  8  8  8  8  9  7  8  8  8  8  8  8  8  8
++         8  8  8  8  8  8  8  8  8  8  8  4  4  4  4  4  4
++         5  4  5  4  5  5  4  4  4  5  4  4  4  5  4  4  4
++         5  4  3  4  4  3  3  4  3  4  4  4  3  4  4  3  3
++         3  4  3  4  4  4  3  3  4  4  4  3  4  3  4  4  6
++         5  5  6  6  5  5  5  6  5  6  5  6  6  5  5  6  6
++         6  5  5  8  0  0  0  0  0  0  0  0  0  0  0  0  0
%c M  cc GPS ccc cccc cccc cccc cccc ccccc ccccc ccccc ccccc
%c cc cc ccc ccc cccc cccc cccc cccc ccccc ccccc ccccc ccccc
%f  0.0000000  0.000000000  0.00000000000  0.000000000000000
%f  0.0000000  0.000000000  0.00000000000  0.000000000000000
%i    0    0    0    0      0      0      0      0         0
%i    0    0    0    0      0      0      0      0         0
/* INFORMATION & ANALYSIS CENTER (IAC)      ULTRA-RAPID DATA
/* S/V CLOCKS ARE ALIGNED TO GNSS TIME                      
/* G:C1WC2W R:C1PC2P E:C1XC5X C:C2IC6I J:C1CC2S             
/* PCV:IGS14_2091 OL/AL:FES2004  NONE     YN ORB:CoN CLK:CoN
*  2020 03 02  3 15  0.00000000
PC06 -23209.114218  27924.856899  21431.858092    242.034227
PC07 -12531.283939  37555.533190  15353.989827   -112.043023
PC08  -9492.546322  19573.620318 -36000.223677   -138.285440
PC09  -9990.766136  27650.194394  30330.585534    372.088997
PC10  -2823.193493  42168.324909   3424.330736   -713.604684
PC11 -13411.655969 -12246.393228  21264.365671   -214.840031
PC12   8021.853642 -15643.674300  21705.624338    325.940006
PC13   4461.141221  27346.192716 -31600.599534    298.759856
PC14  -5939.061967 -20214.539477 -18240.990562    199.166203
PC16 -19741.385025  28296.879771  24157.095706   -748.664788
PC19  12025.589524  11876.232410  22234.595545    340.327985
PC20   -568.502635  25167.086672  12091.481712   -796.312349
PC21  13317.006004 -23859.805172   5637.822092   -129.659720
PC22  17892.216449  -8532.864456  19637.327906   -890.767640
PC23 -19508.095731  -1968.187783  19855.943161   -907.378376
PC24  -8600.984054 -23999.278346 -11393.023995   -922.450497
PC25 -20603.649458 -17719.957825   6383.318628   -534.176050
PC26   6691.279015 -16119.409513 -21788.888818    591.190946
PC27 -17681.209543  13931.949731 -16489.474825    287.894146
PC28 -27619.872425   3991.026791   -288.733798    278.838490
PC29  21660.278114   7412.075932 -15963.721603    195.167944
PC30   2824.794162  15636.746422 -22937.231142    280.268566
PC32 -13113.295875  23995.410419  -5571.741599   -883.736552
PC33 -12069.160738 -11865.552651 -22176.334135   -931.618718
PC34  -3208.622581 -15613.684804  22904.314048   -513.510203
PC35  27502.714313  -4846.407241    164.173218   -933.074461
PC36  20106.643143  18336.823039  -6167.287120   -824.841699
PC37  -7622.632228  15439.583503  21970.263301   -867.313555
PE01  -9004.895137 -28059.636178   2823.929716   -806.033652
PE02   9057.375398  28020.061174  -2913.653646    116.470861
PE03   2567.908659  19443.551838  22173.142768   -272.190857
PE04 -18821.748025  -3941.402749 -22498.417126   -476.627718
PE05 -15364.029862  23706.620929   8841.288398   -400.817615
PE07  24205.163191 -14087.140130   9575.843518   -348.399698
PE08  18867.287676   3543.159989  22529.336558   6212.707809
PE09 -24064.752210  14373.512711  -9529.506613   6139.052121
PE11 -25618.673834   2984.222590 -14502.453192   1523.024060
PE12 -27362.698845 -10390.554719   4344.334883   5924.910957
PE13  25746.802778  -2878.785051  14339.354935    398.857943
PE14  26187.024520    847.797354 -14112.619372   -925.006637
PE15  27509.672481  10126.341898  -4122.357951    875.436092
PE18 -25275.811228  11680.351873   -823.426189  -1022.754437
PE19   -472.624915 -20466.991863 -21376.766532     -1.301219
PE21   4051.257800 -25084.252005 -15194.770252   -585.628883
PE24 -15058.150235   7171.498102  24436.661239   5582.172438
PE25  -4127.150959  25011.693170  15278.737204   -505.462384
PE26   8664.492858 -14442.805513  24353.222695   3467.574183
PE27  14933.910527  -7386.611018 -24468.037460    271.066655
PE30  16938.829614  14842.682646 -19211.200837   4100.585408
PE31 -17010.789756 -14590.000278  19342.119708   -471.870310
PE33 -13095.746138 -17214.457008  20215.297735   -469.882590
PE36  -8869.681736  14202.344449 -24395.230860    591.424297
PG01  22135.272910  14977.933897  -1139.418562   -312.277353
PG02  -5375.959832 -18222.987236  19233.376084   -414.463382
PG03  13017.527664  12520.277227  19449.393761   -107.406196
PG04  19352.265286   4302.628329  17696.436612    -56.402023
PG05  -2505.065762 -26086.180785  -3741.261017     -8.439613
PG06   6820.770641 -13235.380225  22049.232138   -221.335538
PG07  22455.227477   2596.744047 -14031.767773   -226.429558
PG08   9820.943480  11614.652325 -21764.476712    -25.629160
PG09  24090.344082  -5281.142370   9832.265175   -167.456720
PG10 -11624.203010  17599.051690 -15917.766908   -263.367159
PG11  17392.972282  13484.112495 -15156.171326   -345.902232
PG12 -10598.253564 -15995.323898  18210.190396    145.349218
PG13   -717.805721 -15609.607741 -21588.987408     -8.901686
PG14 -13273.563348  17373.045059  15282.775609    -29.025595
PG15 -12076.102807 -11052.739153 -21260.024856   -247.863761
PG16   -209.156144  25961.703073  -4504.105694   -130.371736
PG17  20965.869179 -14834.000412   7086.809720    225.086209
PG18  17816.615555  17551.657640  -9573.463759      5.173010
PG19  16194.889894 -16116.599648  13251.447241   -191.430529
PG20 -14970.973278   6644.749551 -20962.935435    527.882906
PG21 -21559.129885    152.952930 -14548.159225    -33.566977
PG22  11291.427874  19846.709261  13885.498571   -785.242754
PG23  20339.602669   3029.096496  17372.000645   -132.636955
PG24 -22000.491647 -14890.308592  -3396.545287     -9.801583
PG25 -14811.566467  -3069.810534  21614.748924    -10.990760
PG26  -4528.602805  25308.670048   6149.588116    159.208086
PG27  -1943.690207  16721.211539 -20580.818121   -226.574256
PG28  12043.111404 -18549.626516 -14221.717853    735.750704
PG29 -23931.156499   2544.725080  11220.623298    -46.269957
PG30  15452.410492  -7473.823114 -20285.838926   -165.737992
PG31  -4882.628141  14827.500614  21399.041148    -26.713992
PG32 -19766.144476  16233.196042   6947.909474    225.948724
PR01 -15354.004487  19081.284128  -7153.988911     57.916809
PR02  -5504.480470  20896.736021  13547.215282    414.623241
PR03   6999.030467   9271.947015  22744.922399     10.829104
PR04  15203.489932  -7614.303469  19041.252910     40.569152
PR05  14995.490259 -20151.202925   4517.918907     45.981824
PR07  -7273.850452  -8832.208357 -22765.718376    -33.851416
PR08 -15276.109319   7551.039598 -18922.663887    -50.799373
PR09  -8964.410076 -22999.153259  -6290.006858    119.657563
PR11 -13742.565656  -3864.910332  21137.627035    -15.296589
PR12  -4988.885517  12421.985808  21728.737706    110.368038
PR13   7211.211478  22485.486176   9621.892403    -35.514595
PR14  14710.477663  19242.661498  -8006.590084     48.702648
PR15  13857.514350   4906.281492 -20829.294330    106.055829
PR16   4522.011363 -13104.657894 -21468.953038     -1.815014
PR17  18568.254657   7776.955530 -15631.187483    305.531960
PR18  25526.196887    826.047708    285.270216     27.009710
PR19  19152.436306  -5911.966070  15784.493889    -81.709960
PR20   -294.082589 -10428.712339  23288.740648   -405.491704
PR21 -19249.009175  -7480.634205  14992.432173   -108.466579
PR22 -25251.840061    312.768235  -3068.119225    -16.154774
PR23 -13506.026530   8403.633881 -19939.829841    289.866277
PR26   4184.759140 -10176.682641  23025.870945   -405.302241
EOF
